KAITUO 1B               
1 40912U 15049P   18001.23764066  .00001268  00000-0  64966-4 0  9991
2 40912  97.4516  10.9793 0014062 228.1165 191.2204 15.18339771126336
TIANWANG 1C (TW-1C)     
1 40926U 15051B   18001.07101249  .00007635  00000-0  15567-3 0  9995
2 40926  97.2070  44.3011 0011203 158.7339 285.1592 15.46437723127468
TIANWANG 1B (TW-1B)     
1 40927U 15051C   18001.08626340  .00007795  00000-0  16534-3 0  9993
2 40927  97.2155  44.2383 0010830 170.5837 241.6841 15.45271548127390
TIANWANG 1A (TW-1A)     
1 40928U 15051D   18001.14015976  .00003280  00000-0  90613-4 0  9994
2 40928  97.2060  38.3485 0011314 197.1785 197.4076 15.37706701127100
LAPAN-A2 (IO-86)        
1 40931U 15052B   18001.08714531  .00000651  00000-0  16823-5 0  9996
2 40931   5.9979 261.6532 0012143 164.9788 195.0998 14.76560482122264
LQSAT                   
1 40958U 15057A   18001.26469514  .00000042  00000-0  14232-4 0  9993
2 40958  97.9595  77.9247 0018822 147.8804 212.3568 14.73009933120280
CHUBUSAT-2              
1 41338U 16012B   18001.21375399  .00000366  00000-0  21919-4 0  9999
2 41338  31.0038 294.4399 0014013 220.0673 139.8929 14.99898456102743
CHUBUSAT-3              
1 41339U 16012C   18001.18214306  .00000377  00000-0  22639-4 0  9998
2 41339  31.0098 293.4790 0013858 226.7741 133.1738 15.00091802102725
OUFTI-1                 
1 41458U 16025C   18001.09007715  .00002070  00000-0  11258-3 0  9994
2 41458  98.1594  54.8618 0171142 348.0814  11.6403 15.04111157 92312
E-ST@R-II               
1 41459U 16025D   18001.20256676  .00001765  00000-0  97153-4 0  9999
2 41459  98.1631  54.8837 0171792 348.4490  11.2815 15.03889385 92321
AAUSAT 4                
1 41460U 16025E   18001.19543283  .00002419  00000-0  13057-3 0  9999
2 41460  98.1556  55.1461 0163447 345.6665  13.9963 15.05116516 92365
NUSAT 1 (LO-87)         
1 41557U 16033B   18001.25142236  .00001452  00000-0  55976-4 0  9998
2 41557  97.4496  85.7135 0014739  33.8075 326.4101 15.27878608 88669
BEESAT-4                
1 41619U 16040W   18001.12772390  .00001643  00000-0  75722-4 0  9994
2 41619  97.4386  66.4313 0013411  95.7817 264.4949 15.21624001 72683
PRATHAM                 
1 41783U 16059A   18001.17834476  .00000089  00000-0  26739-4 0  9992
2 41783  98.1423  65.2318 0032365 259.3527 100.4030 14.62891489 67541
ALSAT 1N                
1 41789U 16059G   18001.13906161  .00000097  00000-0  27621-4 0  9995
2 41789  98.1430  66.0818 0026881 252.6773 107.1501 14.64115613 67574
NAYIF-1 (EO-88)         
1 42017U 17008BX  18001.20977921  .00001795  00000-0  77315-4 0  9996
2 42017  97.4714  67.1160 0005128 239.4325 120.6406 15.23904251 48635
LILACSAT-1              
1 42725U 98067ME  18001.19567159  .00018779  00000-0  21341-3 0  9999
2 42725  51.6376 125.0343 0005059 324.3930  35.6726 15.62349345 34379
MAX VALIER SAT          
1 42778U 17036P   18001.22337921  .00001137  00000-0  54453-4 0  9991
2 42778  97.4275  63.5274 0011256 297.4731  62.5360 15.20950099 29125
FOX-1B (AO-91)          
1 43017U 17073E   18001.25933425  .00000600  00000-0  52046-4 0  9993
2 43017  97.6957 299.4932 0262065  94.9477 268.1704 14.77819456  6454
